{
  "type": "FeatureCollection",
  "features": [
    {
      "type": "Feature",
      "properties": {
        "norad_id": 66421,
        "name": "CZ-12 R/B",
        "group": "last-30-days",
        "lat": 5.761886454859104,
        "lon": 108.50181140708355,
        "alt_km": 719.4508216574886,
        "timestamp": "2025-12-04T13:51:59.226291+00:00",
        "meta_object_name": "CZ-12 R/B",
        "meta_object_id": "2025-258K",
        "meta_epoch": "2025-12-04T08:04:38.890272",
        "meta_mean_motion": 14.42317083,
        "meta_eccentricity": 0.00645893,
        "meta_inclination": 49.9969,
        "meta_ra_of_asc_node": 294.4095,
        "meta_arg_of_pericenter": 219.2024,
        "meta_mean_anomaly": 140.4208,
        "meta_ephemeris_type": 0,
        "meta_classification_type": "U",
        "meta_norad_cat_id": 66421,
        "meta_element_set_no": 999,
        "meta_rev_at_epoch": 350,
        "meta_bstar": 4.3542637e-05,
        "meta_mean_motion_dot": -2.2e-07,
        "meta_mean_motion_ddot": 0,
        "tle_line1": "1 66421U 25258K   25338.33656123 -.00000022  00000+0  43543-4 0  9998",
        "tle_line2": "2 66421  49.9969 294.4095 0064589 219.2024 140.4208 14.42317083  3502"
      },
      "geometry": {
        "type": "Point",
        "coordinates": [
          108.50181140708355,
          5.761886454859104
        ]
      }
    },
    {
      "type": "Feature",
      "properties": {
        "norad_id": 66422,
        "name": "STARLINK-35617",
        "group": "last-30-days",
        "lat": -14.952473535536674,
        "lon": 78.48812670603803,
        "alt_km": 439.1851819523172,
        "timestamp": "2025-12-04T13:51:59.226301+00:00",
        "meta_object_name": "STARLINK-35617",
        "meta_object_id": "2025-259A",
        "meta_epoch": "2025-12-04T08:00:01.999872",
        "meta_mean_motion": 15.4378543,
        "meta_eccentricity": 0.00018391,
        "meta_inclination": 43.0009,
        "meta_ra_of_asc_node": 96.5558,
        "meta_arg_of_pericenter": 263.4046,
        "meta_mean_anomaly": 154.895,
        "meta_ephemeris_type": 0,
        "meta_classification_type": "U",
        "meta_norad_cat_id": 66422,
        "meta_element_set_no": 999,
        "meta_rev_at_epoch": 492,
        "meta_bstar": -0.045741454,
        "meta_mean_motion_dot": -0.01900615,
        "meta_mean_motion_ddot": 0,
        "tle_line1": "1 66422U 25259A   25338.33335648 -.01900615  00000+0 -45741-1 0  9994",
        "tle_line2": "2 66422  43.0009  96.5558 0001839 263.4046 154.8950 15.43785430  4929"
      },
      "geometry": {
        "type": "Point",
        "coordinates": [
          78.48812670603803,
          -14.952473535536674
        ]
      }
    },
    {
      "type": "Feature",
      "properties": {
        "norad_id": 66423,
        "name": "STARLINK-35618",
        "group": "last-30-days",
        "lat": -8.616716527395777,
        "lon": 85.75842629392,
        "alt_km": 434.67155159848244,
        "timestamp": "2025-12-04T13:51:59.226312+00:00",
        "meta_object_name": "STARLINK-35618",
        "meta_object_id": "2025-259B",
        "meta_epoch": "2025-12-04T08:00:01.999872",
        "meta_mean_motion": 15.45178729,
        "meta_eccentricity": 0.00016503,
        "meta_inclination": 43.0008,
        "meta_ra_of_asc_node": 96.5341,
        "meta_arg_of_pericenter": 273.0967,
        "meta_mean_anomaly": 153.5561,
        "meta_ephemeris_type": 0,
        "meta_classification_type": "U",
        "meta_norad_cat_id": 66423,
        "meta_element_set_no": 999,
        "meta_rev_at_epoch": 492,
        "meta_bstar": -0.046930467,
        "meta_mean_motion_dot": -0.0202976,
        "meta_mean_motion_ddot": 0,
        "tle_line1": "1 66423U 25259B   25338.33335648 -.02029760  00000+0 -46930-1 0  9990",
        "tle_line2": "2 66423  43.0008  96.5341 0001650 273.0967 153.5561 15.45178729  4922"
      },
      "geometry": {
        "type": "Point",
        "coordinates": [
          85.75842629392,
          -8.616716527395777
        ]
      }
    },
    {
      "type": "Feature",
      "properties": {
        "norad_id": 66424,
        "name": "STARLINK-35588",
        "group": "last-30-days",
        "lat": -3.117322572570973,
        "lon": 91.74672750944883,
        "alt_km": 430.24015461478393,
        "timestamp": "2025-12-04T13:51:59.226324+00:00",
        "meta_object_name": "STARLINK-35588",
        "meta_object_id": "2025-259C",
        "meta_epoch": "2025-12-04T08:00:01.999872",
        "meta_mean_motion": 15.46528477,
        "meta_eccentricity": 0.0001344,
        "meta_inclination": 43.0006,
        "meta_ra_of_asc_node": 96.5172,
        "meta_arg_of_pericenter": 277.5381,
        "meta_mean_anomaly": 156.057,
        "meta_ephemeris_type": 0,
        "meta_classification_type": "U",
        "meta_norad_cat_id": 66424,
        "meta_element_set_no": 999,
        "meta_rev_at_epoch": 492,
        "meta_bstar": -0.04565792,
        "meta_mean_motion_dot": -0.02064911,
        "meta_mean_motion_ddot": 0,
        "tle_line1": "1 66424U 25259C   25338.33335648 -.02064911  00000+0 -45658-1 0  9994",
        "tle_line2": "2 66424  43.0006  96.5172 0001344 277.5381 156.0570 15.46528477  4920"
      },
      "geometry": {
        "type": "Point",
        "coordinates": [
          91.74672750944883,
          -3.117322572570973
        ]
      }
    },
    {
      "type": "Feature",
      "properties": {
        "norad_id": 66425,
        "name": "STARLINK-35555",
        "group": "last-30-days",
        "lat": 1.4512935586964428,
        "lon": 96.63713977117973,
        "alt_km": 425.8569396785806,
        "timestamp": "2025-12-04T13:51:59.226335+00:00",
        "meta_object_name": "STARLINK-35555",
        "meta_object_id": "2025-259D",
        "meta_epoch": "2025-12-04T08:00:01.999872",
        "meta_mean_motion": 15.47868704,
        "meta_eccentricity": 0.0001418,
        "meta_inclination": 43.0004,
        "meta_ra_of_asc_node": 96.5021,
        "meta_arg_of_pericenter": 277.6249,
        "meta_mean_anomaly": 161.4946,
        "meta_ephemeris_type": 0,
        "meta_classification_type": "U",
        "meta_norad_cat_id": 66425,
        "meta_element_set_no": 999,
        "meta_rev_at_epoch": 492,
        "meta_bstar": -0.043979936,
        "meta_mean_motion_dot": -0.02082588,
        "meta_mean_motion_ddot": 0,
        "tle_line1": "1 66425U 25259D   25338.33335648 -.02082588  00000+0 -43980-1 0  9991",
        "tle_line2": "2 66425  43.0004  96.5021 0001418 277.6249 161.4946 15.47868704  4926"
      },
      "geometry": {
        "type": "Point",
        "coordinates": [
          96.63713977117973,
          1.4512935586964428
        ]
      }
    },
    {
      "type": "Feature",
      "properties": {
        "norad_id": 66426,
        "name": "STARLINK-35589",
        "group": "last-30-days",
        "lat": 5.046470632702728,
        "lon": 100.50586045201383,
        "alt_km": 421.5584867021498,
        "timestamp": "2025-12-04T13:51:59.226345+00:00",
        "meta_object_name": "STARLINK-35589",
        "meta_object_id": "2025-259E",
        "meta_epoch": "2025-12-04T08:00:01.999872",
        "meta_mean_motion": 15.49180701,
        "meta_eccentricity": 0.00013413,
        "meta_inclination": 43.0003,
        "meta_ra_of_asc_node": 96.4939,
        "meta_arg_of_pericenter": 278.5426,
        "meta_mean_anomaly": 164.6968,
        "meta_ephemeris_type": 0,
        "meta_classification_type": "U",
        "meta_norad_cat_id": 66426,
        "meta_element_set_no": 999,
        "meta_rev_at_epoch": 492,
        "meta_bstar": -0.041451949,
        "meta_mean_motion_dot": -0.02059101,
        "meta_mean_motion_ddot": 0,
        "tle_line1": "1 66426U 25259E   25338.33335648 -.02059101  00000+0 -41452-1 0  9999",
        "tle_line2": "2 66426  43.0003  96.4939 0001341 278.5426 164.6968 15.49180701  4920"
      },
      "geometry": {
        "type": "Point",
        "coordinates": [
          100.50586045201383,
          5.046470632702728
        ]
      }
    },
    {
      "type": "Feature",
      "properties": {
        "norad_id": 66427,
        "name": "STARLINK-35611",
        "group": "last-30-days",
        "lat": 7.6621686857883775,
        "lon": 103.35861412804068,
        "alt_km": 417.48137658555515,
        "timestamp": "2025-12-04T13:51:59.226355+00:00",
        "meta_object_name": "STARLINK-35611",
        "meta_object_id": "2025-259F",
        "meta_epoch": "2025-12-04T08:00:01.999872",
        "meta_mean_motion": 15.50512132,
        "meta_eccentricity": 0.00014717,
        "meta_inclination": 43.0004,
        "meta_ra_of_asc_node": 96.4864,
        "meta_arg_of_pericenter": 272.699,
        "meta_mean_anomaly": 173.2278,
        "meta_ephemeris_type": 0,
        "meta_classification_type": "U",
        "meta_norad_cat_id": 66427,
        "meta_element_set_no": 999,
        "meta_rev_at_epoch": 492,
        "meta_bstar": -0.039539865,
        "meta_mean_motion_dot": -0.02059883,
        "meta_mean_motion_ddot": 0,
        "tle_line1": "1 66427U 25259F   25338.33335648 -.02059883  00000+0 -39540-1 0  9992",
        "tle_line2": "2 66427  43.0004  96.4864 0001471 272.6990 173.2278 15.50512132  4923"
      },
      "geometry": {
        "type": "Point",
        "coordinates": [
          103.35861412804068,
          7.6621686857883775
        ]
      }
    }
  ]
}